QIANFAN-33              
1 61566U 24185Q   25266.94063966  .00000643  00000+0  45627-3 0  9997
2 61566  88.9732  87.7099 0005903 199.4176 160.6776 13.96444228 58028
QIANFAN-34              
1 61567U 24185R   25266.94769595  .00000697  00000+0  44675-3 0  9990
2 61567  88.9713  87.3782 0004443 206.7438 153.3513 14.02197025 58176
QIANFAN-35              
1 61568U 24185S   25266.94690578  .00001508  00000+0  60520-3 0  9994
2 61568  88.9737  86.2499 0006689 169.5086 190.6249 14.27743864 58798
QIANFAN-36              
1 61569U 24185T   25266.94898782  .00000192  00000+0  25945-3 0  9992
2 61569  88.9719  89.3618 0004152 276.7869  83.2812 13.55555533 57111
QIANFAN-37              
1 62238U 24232B   25266.92864255  .00000114  00000+0  15732-3 0  9992
2 62238  88.9980  49.3754 0001504  77.7831 282.3488 13.50964505 88391
QIANFAN-38              
1 62239U 24232C   25266.95346976  .00000120  00000+0  16712-3 0  9997
2 62239  88.9987  49.2833 0016160  69.4898 290.7986 13.50968124 88455
QIANFAN-39              
1 62240U 24232D   25266.95231221  .00000683  00000+0  28415-3 0  9992
2 62240  88.9987  46.4208 0015334 347.6464  12.4351 14.25253304 90025
QIANFAN-40              
1 62241U 24232E   25266.91229632  .00000119  00000+0  16597-3 0  9994
2 62241  89.0016  48.8495 0015294  76.9306 283.3551 13.50972914 88814
